{"type": "FeatureCollection", "features": [{"type": "Feature", "properties": {"norad_id": 24946, "name": "IRIDIUM 33", "group": "iridium-33-debris", "lat": -48.15706351051648, "lon": 59.245167964614964, "alt_km": 787.0118609825295, "timestamp": "2025-12-24T11:33:00.402334+00:00", "meta": {"OBJECT_NAME": "IRIDIUM 33", "OBJECT_ID": "1997-051C", "EPOCH": "2025-12-24T03:24:27.650016", "MEAN_MOTION": 14.35044893, "ECCENTRICITY": 0.0008384, "INCLINATION": 86.3858, "RA_OF_ASC_NODE": 63.4351, "ARG_OF_PERICENTER": 163.2863, "MEAN_ANOMALY": 196.8611, "EPHEMERIS_TYPE": 0, "CLASSIFICATION_TYPE": "U", "NORAD_CAT_ID": 24946, "ELEMENT_SET_NO": 999, "REV_AT_EPOCH": 47998, "BSTAR": 0.00010793, "MEAN_MOTION_DOT": 3.27e-06, "MEAN_MOTION_DDOT": 0}, "tle": {"line1": "1 24946U 97051C   25358.14198669  .00000327  00000+0  10793-3 0  9998", "line2": "2 24946  86.3858  63.4351 0008384 163.2863 196.8611 14.35044893479989"}}, "geometry": {"type": "Point", "coordinates": [59.245167964614964, -48.15706351051648]}}, {"type": "Feature", "properties": {"norad_id": 33773, "name": "IRIDIUM 33 DEB", "group": "iridium-33-debris", "lat": -75.69931128084977, "lon": -110.08716231415195, "alt_km": 762.7020042724389, "timestamp": "2025-12-24T11:33:00.402381+00:00", "meta": {"OBJECT_NAME": "IRIDIUM 33 DEB", "OBJECT_ID": "1997-051L", "EPOCH": "2025-12-24T03:42:43.819776", "MEAN_MOTION": 14.43280063, "ECCENTRICITY": 0.0013256, "INCLINATION": 86.3998, "RA_OF_ASC_NODE": 55.752, "ARG_OF_PERICENTER": 113.5751, "MEAN_ANOMALY": 246.6843, "EPHEMERIS_TYPE": 0, "CLASSIFICATION_TYPE": "U", "NORAD_CAT_ID": 33773, "ELEMENT_SET_NO": 999, "REV_AT_EPOCH": 88512, "BSTAR": 0.00028415, "MEAN_MOTION_DOT": 9.77e-06, "MEAN_MOTION_DDOT": 0}, "tle": {"line1": "1 33773U 97051L   25358.15467384  .00000977  00000+0  28415-3 0  9991", "line2": "2 33773  86.3998  55.7520 0013256 113.5751 246.6843 14.43280063885120"}}, "geometry": {"type": "Point", "coordinates": [-110.08716231415195, -75.69931128084977]}}, {"type": "Feature", "properties": {"norad_id": 33775, "name": "IRIDIUM 33 DEB", "group": "iridium-33-debris", "lat": -83.13421871661225, "lon": -103.56796922920779, "alt_km": 769.8909755762143, "timestamp": "2025-12-24T11:33:00.402398+00:00", "meta": {"OBJECT_NAME": "IRIDIUM 33 DEB", "OBJECT_ID": "1997-051N", "EPOCH": "2025-12-23T13:17:41.922816", "MEAN_MOTION": 14.41490246, "ECCENTRICITY": 0.00152222, "INCLINATION": 86.3625, "RA_OF_ASC_NODE": 44.9362, "ARG_OF_PERICENTER": 122.4462, "MEAN_ANOMALY": 12.5884, "EPHEMERIS_TYPE": 0, "CLASSIFICATION_TYPE": "U", "NORAD_CAT_ID": 33775, "ELEMENT_SET_NO": 999, "REV_AT_EPOCH": 88296, "BSTAR": 0.00028606428, "MEAN_MOTION_DOT": 9.49e-06, "MEAN_MOTION_DDOT": 0}, "tle": {"line1": "1 33775U 97051N   25357.55395744  .00000949  00000+0  28606-3 0  9997", "line2": "2 33775  86.3625  44.9362 0015222 122.4462  12.5884 14.41490246882964"}}, "geometry": {"type": "Point", "coordinates": [-103.56796922920779, -83.13421871661225]}}, {"type": "Feature", "properties": {"norad_id": 33776, "name": "IRIDIUM 33 DEB", "group": "iridium-33-debris", "lat": -3.0175203404996225, "lon": 75.65491020662706, "alt_km": 777.8902268951379, "timestamp": "2025-12-24T11:33:00.402413+00:00", "meta": {"OBJECT_NAME": "IRIDIUM 33 DEB", "OBJECT_ID": "1997-051P", "EPOCH": "2025-12-23T23:00:23.364864", "MEAN_MOTION": 14.38253879, "ECCENTRICITY": 0.0015616, "INCLINATION": 86.403, "RA_OF_ASC_NODE": 76.0644, "ARG_OF_PERICENTER": 154.6718, "MEAN_ANOMALY": 18.0774, "EPHEMERIS_TYPE": 0, "CLASSIFICATION_TYPE": "U", "NORAD_CAT_ID": 33776, "ELEMENT_SET_NO": 999, "REV_AT_EPOCH": 88243, "BSTAR": 0.00026165, "MEAN_MOTION_DOT": 8.16e-06, "MEAN_MOTION_DDOT": 0}, "tle": {"line1": "1 33776U 97051P   25357.95860376  .00000816  00000+0  26165-3 0  9991", "line2": "2 33776  86.4030  76.0644 0015616 154.6718  18.0774 14.38253879882439"}}, "geometry": {"type": "Point", "coordinates": [75.65491020662706, -3.0175203404996225]}}, {"type": "Feature", "properties": {"norad_id": 33777, "name": "IRIDIUM 33 DEB", "group": "iridium-33-debris", "lat": 20.25290162915307, "lon": -151.24469351267592, "alt_km": 703.8801975024608, "timestamp": "2025-12-24T11:33:00.402425+00:00", "meta": {"OBJECT_NAME": "IRIDIUM 33 DEB", "OBJECT_ID": "1997-051Q", "EPOCH": "2025-12-24T02:34:12.487008", "MEAN_MOTION": 14.55688811, "ECCENTRICITY": 0.0006197, "INCLINATION": 86.3772, "RA_OF_ASC_NODE": 30.2576, "ARG_OF_PERICENTER": 200.9801, "MEAN_ANOMALY": 159.1154, "EPHEMERIS_TYPE": 0, "CLASSIFICATION_TYPE": "U", "NORAD_CAT_ID": 33777, "ELEMENT_SET_NO": 999, "REV_AT_EPOCH": 88699, "BSTAR": 0.0008346, "MEAN_MOTION_DOT": 3.667e-05, "MEAN_MOTION_DDOT": 0}, "tle": {"line1": "1 33777U 97051Q   25358.10708897  .00003667  00000+0  83460-3 0  9997", "line2": "2 33777  86.3772  30.2576 0006197 200.9801 159.1154 14.55688811886991"}}, "geometry": {"type": "Point", "coordinates": [-151.24469351267592, 20.25290162915307]}}, {"type": "Feature", "properties": {"norad_id": 33850, "name": "IRIDIUM 33 DEB", "group": "iridium-33-debris", "lat": -84.79200795123734, "lon": -19.46594970868069, "alt_km": 766.7597479236238, "timestamp": "2025-12-24T11:33:00.402438+00:00", "meta": {"OBJECT_NAME": "IRIDIUM 33 DEB", "OBJECT_ID": "1997-051T", "EPOCH": "2025-12-24T00:35:08.831328", "MEAN_MOTION": 14.42173299, "ECCENTRICITY": 0.0013235, "INCLINATION": 86.3407, "RA_OF_ASC_NODE": 25.3267, "ARG_OF_PERICENTER": 127.4585, "MEAN_ANOMALY": 295.8147, "EPHEMERIS_TYPE": 0, "CLASSIFICATION_TYPE": "U", "NORAD_CAT_ID": 33850, "ELEMENT_SET_NO": 999, "REV_AT_EPOCH": 88315, "BSTAR": 0.00038669, "MEAN_MOTION_DOT": 1.293e-05, "MEAN_MOTION_DDOT": 0}, "tle": {"line1": "1 33850U 97051T   25358.02440777  .00001293  00000+0  38669-3 0  9994", "line2": "2 33850  86.3407  25.3267 0013235 127.4585 295.8147 14.42173299883153"}}, "geometry": {"type": "Point", "coordinates": [-19.46594970868069, -84.79200795123734]}}, {"type": "Feature", "properties": {"norad_id": 33853, "name": "IRIDIUM 33 DEB", "group": "iridium-33-debris", "lat": -77.97676769744385, "lon": -34.51736371855527, "alt_km": 879.5523595810773, "timestamp": "2025-12-24T11:33:00.402450+00:00", "meta": {"OBJECT_NAME": "IRIDIUM 33 DEB", "OBJECT_ID": "1997-051W", "EPOCH": "2025-12-24T00:14:15.619200", "MEAN_MOTION": 13.99116212, "ECCENTRICITY": 0.0207614, "INCLINATION": 86.0001, "RA_OF_ASC_NODE": 344.8683, "ARG_OF_PERICENTER": 201.0614, "MEAN_ANOMALY": 225.2938, "EPHEMERIS_TYPE": 0, "CLASSIFICATION_TYPE": "U", "NORAD_CAT_ID": 33853, "ELEMENT_SET_NO": 999, "REV_AT_EPOCH": 85503, "BSTAR": 0.0011602, "MEAN_MOTION_DOT": 2.038e-05, "MEAN_MOTION_DDOT": 0}, "tle": {"line1": "1 33853U 97051W   25358.00990300  .00002038  00000+0  11602-2 0  9992", "line2": "2 33853  86.0001 344.8683 0207614 201.0614 225.2938 13.99116212855036"}}, "geometry": {"type": "Point", "coordinates": [-34.51736371855527, -77.97676769744385]}}, {"type": "Feature", "properties": {"norad_id": 33860, "name": "IRIDIUM 33 DEB", "group": "iridium-33-debris", "lat": -14.359809675440422, "lon": -157.03223645726308, "alt_km": 675.8011979796156, "timestamp": "2025-12-24T11:33:00.402462+00:00", "meta": {"OBJECT_NAME": "IRIDIUM 33 DEB", "OBJECT_ID": "1997-051AD", "EPOCH": "2025-12-24T02:44:42.302400", "MEAN_MOTION": 14.67498252, "ECCENTRICITY": 0.0006093, "INCLINATION": 86.3822, "RA_OF_ASC_NODE": 22.2021, "ARG_OF_PERICENTER": 313.142, "MEAN_ANOMALY": 104.2436, "EPHEMERIS_TYPE": 0, "CLASSIFICATION_TYPE": "U", "NORAD_CAT_ID": 33860, "ELEMENT_SET_NO": 999, "REV_AT_EPOCH": 88889, "BSTAR": 0.00114, "MEAN_MOTION_DOT": 6.482e-05, "MEAN_MOTION_DDOT": 0}, "tle": {"line1": "1 33860U 97051AD  25358.11437850  .00006482  00000+0  11400-2 0  9991", "line2": "2 33860  86.3822  22.2021 0006093 313.1420 104.2436 14.67498252888891"}}, "geometry": {"type": "Point", "coordinates": [-157.03223645726308, -14.359809675440422]}}, {"type": "Feature", "properties": {"norad_id": 33862, "name": "IRIDIUM 33 DEB", "group": "iridium-33-debris", "lat": -41.07243013626585, "lon": 29.212950860730167, "alt_km": 656.5383852407494, "timestamp": "2025-12-24T11:33:00.402474+00:00", "meta": {"OBJECT_NAME": "IRIDIUM 33 DEB", "OBJECT_ID": "1997-051AF", "EPOCH": "2025-12-24T03:52:50.668320", "MEAN_MOTION": 14.69651398, "ECCENTRICITY": 0.0052233, "INCLINATION": 86.4077, "RA_OF_ASC_NODE": 32.4924, "ARG_OF_PERICENTER": 30.7851, "MEAN_ANOMALY": 39.1118, "EPHEMERIS_TYPE": 0, "CLASSIFICATION_TYPE": "U", "NORAD_CAT_ID": 33862, "ELEMENT_SET_NO": 999, "REV_AT_EPOCH": 88991, "BSTAR": 0.0014716, "MEAN_MOTION_DOT": 8.965e-05, "MEAN_MOTION_DDOT": 0}, "tle": {"line1": "1 33862U 97051AF  25358.16169755  .00008965  00000+0  14716-2 0  9995", "line2": "2 33862  86.4077  32.4924 0052233  30.7851  39.1118 14.69651398889919"}}, "geometry": {"type": "Point", "coordinates": [29.212950860730167, -41.07243013626585]}}, {"type": "Feature", "properties": {"norad_id": 33866, "name": "IRIDIUM 33 DEB", "group": "iridium-33-debris", "lat": -44.10110493998781, "lon": 84.47285122676578, "alt_km": 895.1861956163557, "timestamp": "2025-12-24T11:33:00.402485+00:00", "meta": {"OBJECT_NAME": "IRIDIUM 33 DEB", "OBJECT_ID": "1997-051AK", "EPOCH": "2025-12-23T14:10:53.283072", "MEAN_MOTION": 14.25306443, "ECCENTRICITY": 0.01151166, "INCLINATION": 86.2999, "RA_OF_ASC_NODE": 88.445, "ARG_OF_PERICENTER": 127.0066, "MEAN_ANOMALY": 303.4648, "EPHEMERIS_TYPE": 0, "CLASSIFICATION_TYPE": "U", "NORAD_CAT_ID": 33866, "ELEMENT_SET_NO": 999, "REV_AT_EPOCH": 86965, "BSTAR": 0.00052921027, "MEAN_MOTION_DOT": 1.355e-05, "MEAN_MOTION_DDOT": 0}, "tle": {"line1": "1 33866U 97051AK  25357.59089448  .00001355  00000+0  52921-3 0  9992", "line2": "2 33866  86.2999  88.4450 0115116 127.0066 303.4648 14.25306443869651"}}, "geometry": {"type": "Point", "coordinates": [84.47285122676578, -44.10110493998781]}}]}